NORAD_CAT_ID,OBJECT_NAME,OBJECT_TYPE,EPOCH,MEAN_MOTION,ECCENTRICITY,INCLINATION,RA_OF_ASC_NODE,ARG_OF_PERICENTER,MEAN_ANOMALY,BSTAR,MEAN_MOTION_DOT,MEAN_MOTION_DDOT,TLE_LINE0,TLE_LINE1,TLE_LINE2,SEMIMAJOR_AXIS,PERIOD,APOGEE,PERIGEE,DECAYED
54051.0,STARLINK-5195,PAYLOAD,2023-11-11 20:15:27,15.08839783,0.0001901,53.2159,194.9828,85.0164,275.1045,6.3881e-05,7.29e-06,0.0,0 STARLINK-5195,1 54051U 22136A   23315.84406329  .00000729  00000-0  63881-4 0  9997,2 54051  53.2159 194.9828 0001901  85.0164 275.1045 15.08839783 59176,6917.881,95.438,541.061,538.431,0.0
54051.0,STARLINK-5195,PAYLOAD,2023-11-11 21:50:50,15.08834935,0.0001647,53.2166,194.6872,91.4388,268.6793,-3.1366e-05,-7.87e-06,0.0,0 STARLINK-5195,1 54051U 22136A   23315.91030440 -.00000787  00000-0 -31366-4 0  9991,2 54051  53.2166 194.6872 0001647  91.4388 268.6793 15.08834935 58705,6917.896,95.438,540.9,538.621,0.0
54051.0,STARLINK-5195,PAYLOAD,2023-11-12 01:01:36,15.08836056,0.0001548,53.2168,194.0907,88.6602,271.4568,-1.0168e-05,-4.5e-06,0.0,0 STARLINK-5195,1 54051U 22136A   23316.04278397 -.00000450  00000-0 -10168-4 0  9995,2 54051  53.2168 194.0907 0001548  88.6602 271.4568 15.08836056 58727,6917.892,95.438,540.828,538.687,0.0
54051.0,STARLINK-5195,PAYLOAD,2023-11-12 21:41:37,15.08844431,0.000165,53.2168,190.2266,96.2905,263.8275,0.00013014,1.784e-05,0.0,0 STARLINK-5195,1 54051U 22136A   23316.90390185  .00001784  00000-0  13014-3 0  9991,2 54051  53.2168 190.2266 0001650  96.2905 263.8275 15.08844431 58858,6917.867,95.437,540.873,538.59,0.0
54051.0,STARLINK-5195,PAYLOAD,2023-11-13 00:52:23,15.08848478,0.0001526,53.216,189.629,82.4353,277.6813,0.00013316,1.832e-05,0.0,0 STARLINK-5195,1 54051U 22136A   23317.03637970  .00001832  00000-0  13316-3 0  9991,2 54051  53.2160 189.6290 0001526  82.4353 277.6813 15.08848478 59357,6917.854,95.437,540.775,538.664,0.0
54051.0,STARLINK-5195,PAYLOAD,2023-11-13 08:49:18,15.08847022,0.0001549,53.2161,188.1422,81.3358,278.781,0.00010645,1.407e-05,0.0,0 STARLINK-5195,1 54051U 22136A   23317.36758041  .00001407  00000-0  10645-3 0  9990,2 54051  53.2161 188.1422 0001549  81.3358 278.7810 15.08847022 58922,6917.859,95.437,540.796,538.652,0.0
54051.0,STARLINK-5195,PAYLOAD,2023-11-13 21:32:24,15.08843667,0.0001592,53.2159,185.7628,80.4735,279.6437,0.00016098,2.275e-05,0.0,0 STARLINK-5195,1 54051U 22136A   23317.89750217  .00002275  00000-0  16098-3 0  9997,2 54051  53.2159 185.7628 0001592  80.4735 279.6437 15.08843667 59003,6917.869,95.437,540.836,538.633,0.0
54051.0,STARLINK-5195,PAYLOAD,2023-11-14 00:43:10,15.08844438,0.0001558,53.2158,185.168,86.0444,274.0727,0.00013911,1.927e-05,0.0,0 STARLINK-5195,1 54051U 22136A   23318.02998163  .00001927  00000-0  13911-3 0  9991,2 54051  53.2158 185.1680 0001558  86.0444 274.0727 15.08844438 59508,6917.867,95.437,540.81,538.654,0.0
54051.0,STARLINK-5195,PAYLOAD,2023-11-14 08:40:06,15.08841105,0.0001444,53.2152,183.6811,91.5098,268.6059,8.0768e-05,9.98e-06,0.0,0 STARLINK-5195,1 54051U 22136A   23318.36118276  .00000998  00000-0  80768-4 0  9999,2 54051  53.2152 183.6811 0001444  91.5098 268.6059 15.08841105 59078,6917.877,95.437,540.741,538.743,0.0
54051.0,STARLINK-5195,PAYLOAD,2023-11-14 21:23:11,15.08844073,0.0001627,53.2153,181.3036,80.4281,279.6894,2.6502e-05,1.34e-06,0.0,0 STARLINK-5195,1 54051U 22136A   23318.89110163  .00000134  00000-0  26502-4 0  9992,2 54051  53.2153 181.3036 0001627  80.4281 279.6894 15.08844073 59152,6917.868,95.437,540.858,538.607,0.0
54051.0,STARLINK-5195,PAYLOAD,2023-11-15 00:33:57,15.08841985,0.0001542,53.2161,180.7084,81.0224,279.0943,7.5605e-06,-1.68e-06,0.0,0 STARLINK-5195,1 54051U 22136A   23319.02358242 -.00000168  00000-0  75605-5 0  9997,2 54051  53.2161 180.7084 0001542  81.0224 279.0943 15.08841985 59650,6917.874,95.437,540.806,538.673,0.0
54051.0,STARLINK-5195,PAYLOAD,2023-11-15 21:13:58,15.0883977,0.000167,53.2155,176.8419,86.256,273.8623,5.1492e-05,5.32e-06,0.0,0 STARLINK-5195,1 54051U 22136A   23319.88470466  .00000532  00000-0  51492-4 0  9995,2 54051  53.2155 176.8419 0001670  86.2560 273.8623 15.08839770 59301,6917.881,95.438,540.901,538.591,0.0
54051.0,STARLINK-5195,PAYLOAD,2023-11-16 21:04:44,15.0885273,0.0001751,53.2168,172.3814,87.1655,272.9537,-0.0001004,-1.886e-05,0.0,0 STARLINK-5195,1 54051U 22136A   23320.87829774 -.00001886  00000-0 -10040-3 0  9994,2 54051  53.2168 172.3814 0001751  87.1655 272.9537 15.08852730 59451,6917.841,95.437,540.918,538.495,0.0
54051.0,STARLINK-5195,PAYLOAD,2023-11-17 00:15:31,15.08839619,0.000169,53.2171,171.7867,89.4067,270.7119,0.00010832,1.436e-05,0.0,0 STARLINK-5195,1 54051U 22136A   23321.01078370  .00001436  00000-0  10832-3 0  9997,2 54051  53.2171 171.7867 0001690  89.4067 270.7119 15.08839619 59958,6917.882,95.438,540.916,538.577,0.0
54051.0,STARLINK-5195,PAYLOAD,2023-11-17 14:34:00,15.08838041,0.0001567,53.2158,169.1098,88.3832,271.7339,1.0464e-05,-1.21e-06,0.0,0 STARLINK-5195,1 54051U 22136A   23321.60694607 -.00000121  00000-0  10464-4 0  9992,2 54051  53.2158 169.1098 0001567  88.3832 271.7339 15.08838041 59561,6917.886,95.438,540.835,538.667,0.0
54051.0,STARLINK-5195,PAYLOAD,2023-11-17 20:55:32,15.08837516,0.0001593,53.215,167.9197,87.7473,272.3702,5.256e-05,5.49e-06,0.0,0 STARLINK-5195,1 54051U 22136A   23321.87190732  .00000549  00000-0  52560-4 0  9997,2 54051  53.2150 167.9197 0001593  87.7473 272.3702 15.08837516 59604,6917.888,95.438,540.855,538.651,0.0
54051.0,STARLINK-5195,PAYLOAD,2023-11-18 06:27:51,15.08837043,0.0001482,53.2142,166.1353,85.9217,274.1945,4.2218e-05,3.84e-06,0.0,0 STARLINK-5195,1 54051U 22136A   23322.26934892  .00000384  00000-0  42218-4 0  9990,2 54051  53.2142 166.1353 0001482  85.9217 274.1945 15.08837043 59663,6917.889,95.438,540.78,538.729,0.0
54051.0,STARLINK-5195,PAYLOAD,2023-11-18 20:46:20,15.08834597,0.0001573,53.2146,163.4591,86.4127,273.7045,6.1868e-05,6.97e-06,0.0,0 STARLINK-5195,1 54051U 22136A   23322.86551142  .00000697  00000-0  61868-4 0  9998,2 54051  53.2146 163.4591 0001573  86.4127 273.7045 15.08834597 59755,6917.897,95.438,540.85,538.674,0.0
54051.0,STARLINK-5195,PAYLOAD,2023-11-19 06:18:39,15.08835408,0.0001575,53.2149,161.675,85.8962,274.221,5.9551e-05,6.6e-06,0.0,0 STARLINK-5195,1 54051U 22136A   23323.26295237  .00000660  00000-0  59551-4 0  9999,2 54051  53.2149 161.6750 0001575  85.8962 274.2210 15.08835408 60290,6917.894,95.438,540.849,538.67,0.0
54051.0,STARLINK-5195,PAYLOAD,2023-11-19 12:40:11,15.08836246,0.0001509,53.216,160.4864,88.1771,271.9394,8.1212e-05,1.005e-05,0.0,0 STARLINK-5195,1 54051U 22136A   23323.52791191  .00001005  00000-0  81212-4 0  9991,2 54051  53.2160 160.4864 0001509  88.1771 271.9394 15.08836246 59855,6917.892,95.438,540.801,538.713,0.0
54051.0,STARLINK-5195,PAYLOAD,2023-11-19 20:37:07,15.0883941,0.0001485,53.2164,159.0003,90.4486,269.6676,8.3712e-05,1.045e-05,0.0,0 STARLINK-5195,1 54051U 22136A   23323.85910972  .00001045  00000-0  83712-4 0  9998,2 54051  53.2164 159.0003 0001485  90.4486 269.6676 15.08839410 59909,6917.882,95.438,540.774,538.72,0.0
54051.0,STARLINK-5195,PAYLOAD,2023-11-20 12:30:58,15.08839504,0.0001507,53.2161,156.0266,88.7053,271.4112,9.8903e-05,1.286e-05,0.0,0 STARLINK-5195,1 54051U 22136A   23324.52151080  .00001286  00000-0  98903-4 0  9995,2 54051  53.2161 156.0266 0001507  88.7053 271.4112 15.08839504 60002,6917.882,95.438,540.789,538.704,0.0
54051.0,STARLINK-5195,PAYLOAD,2023-11-20 17:17:07,15.08840186,0.0001505,53.2162,155.1345,88.7922,271.3243,9.9244e-05,1.292e-05,0.0,0 STARLINK-5195,1 54051U 22136A   23324.72023057  .00001292  00000-0  99244-4 0  9995,2 54051  53.2162 155.1345 0001505  88.7922 271.3243 15.08840186 60512,6917.88,95.438,540.786,538.704,0.0
54051.0,STARLINK-5195,PAYLOAD,2023-11-20 20:27:54,15.08841348,0.0001506,53.2162,154.5398,88.5603,271.5562,9.6713e-05,1.252e-05,0.0,0 STARLINK-5195,1 54051U 22136A   23324.85270968  .00001252  00000-0  96713-4 0  9998,2 54051  53.2162 154.5398 0001506  88.5603 271.5562 15.08841348 60054,6917.876,95.437,540.783,538.699,0.0
54051.0,STARLINK-5195,PAYLOAD,2023-11-21 12:21:45,15.0884204,0.0001542,53.2159,151.5657,87.1457,272.9712,6.3755e-05,7.27e-06,0.0,0 STARLINK-5195,1 54051U 22136A   23325.51511079  .00000727  00000-0  63755-4 0  9999,2 54051  53.2159 151.5657 0001542  87.1457 272.9712 15.08842040 60150,6917.874,95.437,540.806,538.672,0.0
54051.0,STARLINK-5195,PAYLOAD,2023-11-21 18:43:17,15.08844096,0.0001531,53.2159,150.3761,87.3154,272.8013,6.0245e-05,6.71e-06,0.0,0 STARLINK-5195,1 54051U 22136A   23325.78006944  .00000671  00000-0  60245-4 0  9997,2 54051  53.2159 150.3761 0001531  87.3154 272.8013 15.08844096 60197,6917.868,95.437,540.792,538.674,0.0
54051.0,STARLINK-5195,PAYLOAD,2023-11-22 12:12:32,15.08846948,0.0001523,53.2157,147.1049,87.1551,272.9615,9.8532e-05,1.281e-05,0.0,0 STARLINK-5195,1 54051U 22136A   23326.50870557  .00001281  00000-0  98532-4 0  9995,2 54051  53.2157 147.1049 0001523  87.1551 272.9615 15.08846948 60308,6917.859,95.437,540.778,538.671,0.0
54051.0,STARLINK-5195,PAYLOAD,2023-11-22 18:34:04,15.08848879,0.0001565,53.2163,145.9163,84.5376,275.5795,0.00011212,1.497e-05,0.0,0 STARLINK-5195,1 54051U 22136A   23326.77366361  .00001497  00000-0  11212-3 0  9995,2 54051  53.2163 145.9163 0001565  84.5376 275.5795 15.08848879 60347,6917.853,95.437,540.801,538.636,0.0
54051.0,STARLINK-5195,PAYLOAD,2023-11-23 12:03:19,15.08839324,0.0001679,53.2157,142.6457,83.2098,276.9086,5.1271e-05,5.28e-06,0.0,0 STARLINK-5195,1 54051U 22136A   23327.50231084  .00000528  00000-0  51271-4 0  9994,2 54051  53.2157 142.6457 0001679  83.2098 276.9086 15.08839324 60931,6917.882,95.438,540.909,538.586,0.0
54051.0,STARLINK-5195,PAYLOAD,2023-11-23 18:24:52,15.08836832,0.0001382,53.2156,141.4547,89.9765,270.1386,-8.2595e-07,-3.01e-06,0.0,0 STARLINK-5195,1 54051U 22136A   23327.76727243 -.00000301  00000-0 -82595-6 0  9995,2 54051  53.2156 141.4547 0001382  89.9765 270.1386 15.08836832 60493,6917.89,95.438,540.711,538.799,0.0
